[{"OBJECT_NAME":"KORSAT-7","OBJECT_ID":"2023-185B","EPOCH":"2026-03-09T23:44:55.136256","MEAN_MOTION":15.00898391,"ECCENTRICITY":0.00224341,"INCLINATION":97.6243,"RA_OF_ASC_NODE":135.089,"ARG_OF_PERICENTER":307.6562,"MEAN_ANOMALY":52.2627,"EPHEMERIS_TYPE":0,"CLASSIFICATION_TYPE":"U","NORAD_CAT_ID":58463,"ELEMENT_SET_NO":999,"REV_AT_EPOCH":12440,"BSTAR":0.00023536002,"MEAN_MOTION_DOT":2.951e-5,"MEAN_MOTION_DDOT":0},{"OBJECT_NAME":"STARLINK-35154","OBJECT_ID":"2025-207W","EPOCH":"2026-03-09T22:39:40.819680","MEAN_MOTION":15.05648687,"ECCENTRICITY":8.56e-5,"INCLINATION":97.6037,"RA_OF_ASC_NODE":138.9743,"ARG_OF_PERICENTER":106.6462,"MEAN_ANOMALY":253.4859,"EPHEMERIS_TYPE":0,"CLASSIFICATION_TYPE":"U","NORAD_CAT_ID":65612,"ELEMENT_SET_NO":999,"REV_AT_EPOCH":2814,"BSTAR":0.00026506495,"MEAN_MOTION_DOT":3.766e-5,"MEAN_MOTION_DDOT":0}]
